[{"OBJECT_NAME":"STARLINK-1954","OBJECT_ID":"2021-009H","EPOCH":"2026-03-09T23:20:25.352160","MEAN_MOTION":15.30849174,"ECCENTRICITY":0.00046184,"INCLINATION":53.0574,"RA_OF_ASC_NODE":8.8654,"ARG_OF_PERICENTER":103.3293,"MEAN_ANOMALY":256.8222,"EPHEMERIS_TYPE":0,"CLASSIFICATION_TYPE":"U","NORAD_CAT_ID":47555,"ELEMENT_SET_NO":999,"REV_AT_EPOCH":28100,"BSTAR":0.0022371791,"MEAN_MOTION_DOT":0.00067883,"MEAN_MOTION_DDOT":0},{"OBJECT_NAME":"STARLINK-31987","OBJECT_ID":"2024-111B","EPOCH":"2026-03-09T06:09:41.841792","MEAN_MOTION":15.30187806,"ECCENTRICITY":0.00011667,"INCLINATION":53.161,"RA_OF_ASC_NODE":77.892,"ARG_OF_PERICENTER":79.9762,"MEAN_ANOMALY":280.1371,"EPHEMERIS_TYPE":0,"CLASSIFICATION_TYPE":"U","NORAD_CAT_ID":60017,"ELEMENT_SET_NO":999,"REV_AT_EPOCH":9892,"BSTAR":-5.824588e-6,"MEAN_MOTION_DOT":-5.31e-6,"MEAN_MOTION_DDOT":0}]
